[{"OBJECT_NAME":"EOSSAT-1","OBJECT_ID":"2023-001AW","EPOCH":"2026-03-09T17:40:07.010400","MEAN_MOTION":15.32339828,"ECCENTRICITY":0.00112629,"INCLINATION":97.3357,"RA_OF_ASC_NODE":130.2294,"ARG_OF_PERICENTER":110.3168,"MEAN_ANOMALY":249.9285,"EPHEMERIS_TYPE":0,"CLASSIFICATION_TYPE":"U","NORAD_CAT_ID":55053,"ELEMENT_SET_NO":999,"REV_AT_EPOCH":17668,"BSTAR":0.00024844399,"MEAN_MOTION_DOT":7.695e-5,"MEAN_MOTION_DDOT":0},{"OBJECT_NAME":"STARLINK-34510","OBJECT_ID":"2025-137C","EPOCH":"2026-03-09T21:21:46.772352","MEAN_MOTION":15.30218975,"ECCENTRICITY":0.00010989,"INCLINATION":53.1574,"RA_OF_ASC_NODE":334.4486,"ARG_OF_PERICENTER":105.7139,"MEAN_ANOMALY":254.3983,"EPHEMERIS_TYPE":0,"CLASSIFICATION_TYPE":"U","NORAD_CAT_ID":64596,"ELEMENT_SET_NO":999,"REV_AT_EPOCH":4076,"BSTAR":0.00095347492,"MEAN_MOTION_DOT":0.00028003,"MEAN_MOTION_DDOT":0}]
